ONEWEB-0349             
1 49281U 21090C   24133.55389028  .00000094  00000+0  20047-3 0  9997
2 49281  87.9213  66.7827 0002186  74.6091 285.5284 13.20771616128768
ONEWEB-0353             
1 49282U 21090D   24133.84637959  .00000303  00000+0  78359-3 0  9991
2 49282  87.8950  81.9874 0001935  90.9524 269.1827 13.14504881128324
ONEWEB-0356             
1 49283U 21090E   24133.32503105  .00000259  00000+0  60583-3 0  9990
2 49283  87.9211  66.8232 0001357  56.7293 303.3970 13.20772166128732
ONEWEB-0358             
1 49284U 21090F   24133.50653017  .00000066  00000+0  12989-3 0  9992
2 49284  87.9212  66.7732 0001982  71.6443 288.4906 13.20772037129487
ONEWEB-0359             
1 49285U 21090G   24133.57914225  .00000014  00000+0  16464-5 0  9998
2 49285  87.9208  66.7777 0002464  74.4387 285.7018 13.20771658129477
ONEWEB-0360             
1 49286U 21090H   24133.87270036  .00000083  00000+0  17271-3 0  9998
2 49286  87.9212  66.7239 0002126  79.0004 281.1368 13.20773132130118
ONEWEB-0361             
1 49287U 21090J   24133.32344828  .00000222  00000+0  51431-3 0  9991
2 49287  87.9212  66.8276 0001870  79.8518 280.2826 13.20771337129206
ONEWEB-0362             
1 49288U 21090K   24133.42762998  .00000100  00000+0  21727-3 0  9995
2 49288  87.9124  97.3830 0002381  89.5819 270.5586 13.19725474125912
